start=new Date('2022-12-09T00:00:00.000Z').valueOf();
sats=[{"TIME_SYSTEM":"UTC","APOAPSIS":"547.719","ARG_OF_PERICENTER":"96.9927","RCS_SIZE":"LARGE","TLE_LINE2":"2 48677  53.0568  39.5344 0000736  96.9927 263.1146 15.06401456 84969","BSTAR":"0.00015056000000","TLE_LINE1":"1 48677U 21044AR  22342.85503861  .00001962  00000-0  15056-3 0  9990","CLASSIFICATION_TYPE":"U","DECAY_DATE":null,"MEAN_MOTION":"15.06401456","REV_AT_EPOCH":"8496","OBJECT_NAME":"STARLINK-2719","ELEMENT_SET_NO":"999","ECCENTRICITY":"0.00007360","FILE":"3684925","SITE":"AFETR","MEAN_MOTION_DDOT":"0.0000000000000","OBJECT_ID":"2021-044AR","REF_FRAME":"TEME","MEAN_MOTION_DOT":"0.00001962","GP_ID":"219807411","CENTER_NAME":"EARTH","MEAN_ELEMENT_THEORY":"SGP4","PERIOD":"95.592","RA_OF_ASC_NODE":"39.5344","SEMIMAJOR_AXIS":"6925.344","COUNTRY_CODE":"US","INCLINATION":"53.0568","EPOCH":"2022-12-08T20:31:15.335904","PERIAPSIS":"546.699","MEAN_ANOMALY":"263.1146","NORAD_CAT_ID":"48677","OBJECT_TYPE":"PAYLOAD","LAUNCH_DATE":"2021-05-26","EPHEMERIS_TYPE":"0"},{"TIME_SYSTEM":"UTC","APOAPSIS":"548.390","ARG_OF_PERICENTER":"49.2796","TLE_LINE2":"2 48678  53.0546  39.5550 0001822  49.2796 310.8351 15.06427755 84965","RCS_SIZE":"LARGE","BSTAR":"0.00101850000000","TLE_LINE1":"1 48678U 21044AS  22342.85229571  .00014933  00000-0  10185-2 0  9993","DECAY_DATE":null,"CLASSIFICATION_TYPE":"U","MEAN_MOTION":"15.06427755","REV_AT_EPOCH":"8496","OBJECT_NAME":"STARLINK-2615","ELEMENT_SET_NO":"999","ECCENTRICITY":"0.00018220","FILE":"3684925","SITE":"AFETR","MEAN_MOTION_DDOT":"0.0000000000000","OBJECT_ID":"2021-044AS","REF_FRAME":"TEME","MEAN_MOTION_DOT":"0.00014933","GP_ID":"219807161","CENTER_NAME":"EARTH","MEAN_ELEMENT_THEORY":"SGP4","PERIOD":"95.590","RA_OF_ASC_NODE":"39.5550","COUNTRY_CODE":"US","SEMIMAJOR_AXIS":"6925.263","INCLINATION":"53.0546","EPOCH":"2022-12-08T20:27:18.349344","PERIAPSIS":"545.867","MEAN_ANOMALY":"310.8351","NORAD_CAT_ID":"48678","OBJECT_TYPE":"PAYLOAD","LAUNCH_DATE":"2021-05-26","EPHEMERIS_TYPE":"0"},{"REF_FRAME":"TEME","MEAN_MOTION_DOT":"-0.00009410","GP_ID":"219780903","CENTER_NAME":"EARTH","MEAN_ELEMENT_THEORY":"SGP4","PERIOD":"95.594","RA_OF_ASC_NODE":"41.3567","SEMIMAJOR_AXIS":"6925.414","COUNTRY_CODE":"US","INCLINATION":"53.0540","PERIAPSIS":"546.629","EPOCH":"2022-12-08T10:48:47.874240","MEAN_ANOMALY":"339.4564","OBJECT_TYPE":"PAYLOAD","NORAD_CAT_ID":"48679","LAUNCH_DATE":"2021-05-26","EPHEMERIS_TYPE":"0","TIME_SYSTEM":"UTC","APOAPSIS":"547.930","ARG_OF_PERICENTER":"20.6463","TLE_LINE2":"2 48679  53.0540  41.3567 0000939  20.6463 339.4564 15.06378551 85740","RCS_SIZE":"LARGE","BSTAR":"-0.00061404000000","TLE_LINE1":"1 48679U 21044AT  22342.45055410 -.00009410  00000-0 -61404-3 0  9996","DECAY_DATE":null,"CLASSIFICATION_TYPE":"U","MEAN_MOTION":"15.06378551","REV_AT_EPOCH":"8574","OBJECT_NAME":"STARLINK-2648","ELEMENT_SET_NO":"999","ECCENTRICITY":"0.00009390","FILE":"3684702","SITE":"AFETR","MEAN_MOTION_DDOT":"0.0000000000000","OBJECT_ID":"2021-044AT"},{"GP_ID":"219808163","REF_FRAME":"TEME","MEAN_MOTION_DOT":"0.00009335","PERIAPSIS":"546.009","EPOCH":"2022-12-08T15:30:04.789728","MEAN_ANOMALY":"304.4936","LAUNCH_DATE":"2021-05-26","EPHEMERIS_TYPE":"0","NORAD_CAT_ID":"48680","OBJECT_TYPE":"PAYLOAD","CENTER_NAME":"EARTH","SEMIMAJOR_AXIS":"6925.304","COUNTRY_CODE":"US","INCLINATION":"53.0540","MEAN_ELEMENT_THEORY":"SGP4","PERIOD":"95.591","RA_OF_ASC_NODE":"40.4717","TLE_LINE1":"1 48680U 21044AU  22342.64588877  .00009335  00000-0  64452-3 0  9997","REV_AT_EPOCH":"8493","DECAY_DATE":null,"MEAN_MOTION":"15.06414613","CLASSIFICATION_TYPE":"U","APOAPSIS":"548.329","ARG_OF_PERICENTER":"55.6211","TIME_SYSTEM":"UTC","BSTAR":"0.00064452000000","TLE_LINE2":"2 48680  53.0540  40.4717 0001675  55.6211 304.4936 15.06414613 84931","RCS_SIZE":"LARGE","SITE":"AFETR","OBJECT_ID":"2021-044AU","MEAN_MOTION_DDOT":"0.0000000000000","ELEMENT_SET_NO":"999","ECCENTRICITY":"0.00016750","OBJECT_NAME":"STARLINK-2649","FILE":"3684925"},{"CLASSIFICATION_TYPE":"U","DECAY_DATE":null,"MEAN_MOTION":"15.06414338","REV_AT_EPOCH":"8536","TLE_LINE1":"1 48681U 21044AV  22342.77768532  .00007601  00000-0  52843-3 0  9995","TLE_LINE2":"2 48681  53.0559  10.1254 0001430  53.1873 306.9247 15.06414338 85362","RCS_SIZE":"LARGE","BSTAR":"0.00052843000000","TIME_SYSTEM":"UTC","APOAPSIS":"548.160","ARG_OF_PERICENTER":"53.1873","MEAN_MOTION_DDOT":"0.0000000000000","OBJECT_ID":"2021-044AV","SITE":"AFETR","FILE":"3684925","OBJECT_NAME":"STARLINK-2725","ELEMENT_SET_NO":"999","ECCENTRICITY":"0.00014300","GP_ID":"219806911","MEAN_MOTION_DOT":"0.00007601","REF_FRAME":"TEME","OBJECT_TYPE":"PAYLOAD","NORAD_CAT_ID":"48681","LAUNCH_DATE":"2021-05-26","EPHEMERIS_TYPE":"0","PERIAPSIS":"546.179","EPOCH":"2022-12-08T18:39:52.011648","MEAN_ANOMALY":"306.9247","MEAN_ELEMENT_THEORY":"SGP4","RA_OF_ASC_NODE":"10.1254","PERIOD":"95.591","SEMIMAJOR_AXIS":"6925.305","COUNTRY_CODE":"US","INCLINATION":"53.0559","CENTER_NAME":"EARTH"},{"REF_FRAME":"TEME","MEAN_MOTION_DOT":"-0.00002002","GP_ID":"219807662","CENTER_NAME":"EARTH","COUNTRY_CODE":"US","SEMIMAJOR_AXIS":"6925.375","INCLINATION":"53.0540","MEAN_ELEMENT_THEORY":"SGP4","RA_OF_ASC_NODE":"0.0635","PERIOD":"95.593","MEAN_ANOMALY":"71.2121","PERIAPSIS":"545.994","EPOCH":"2022-12-08T18:35:51.942336","LAUNCH_DATE":"2021-05-26","EPHEMERIS_TYPE":"0","OBJECT_TYPE":"PAYLOAD","NORAD_CAT_ID":"48682","APOAPSIS":"548.487","ARG_OF_PERICENTER":"288.8673","TIME_SYSTEM":"UTC","BSTAR":"-0.00011559000000","TLE_LINE2":"2 48682  53.0540   0.0635 0001800 288.8673  71.2121 15.06391219 85501","RCS_SIZE":"LARGE","TLE_LINE1":"1 48682U 21044AW  22342.77490674 -.00002002  00000-0 -11559-3 0  9996","REV_AT_EPOCH":"8550","MEAN_MOTION":"15.06391219","DECAY_DATE":null,"CLASSIFICATION_TYPE":"U","ELEMENT_SET_NO":"999","ECCENTRICITY":"0.00018000","OBJECT_NAME":"STARLINK-2743","FILE":"3684925","SITE":"AFETR","OBJECT_ID":"2021-044AW","MEAN_MOTION_DDOT":"0.0000000000000"},{"INCLINATION":"53.0550","COUNTRY_CODE":"US","SEMIMAJOR_AXIS":"6925.342","PERIOD":"95.592","RA_OF_ASC_NODE":"0.9997","MEAN_ELEMENT_THEORY":"SGP4","CENTER_NAME":"EARTH","EPHEMERIS_TYPE":"0","LAUNCH_DATE":"2021-05-26","OBJECT_TYPE":"PAYLOAD","NORAD_CAT_ID":"48683","PERIAPSIS":"545.820","MEAN_ANOMALY":"308.5988","EPOCH":"2022-12-08T12:45:32.171040","MEAN_MOTION_DOT":"0.00002068","REF_FRAME":"TEME","GP_ID":"219774229","FILE":"3684614","ECCENTRICITY":"0.00020020","ELEMENT_SET_NO":"999","OBJECT_NAME":"STARLINK-2756","OBJECT_ID":"2021-044AX","MEAN_MOTION_DDOT":"0.0000000000000","SITE":"AFETR","BSTAR":"0.00015772000000","TLE_LINE2":"2 48683  53.0550   0.9997 0002002  51.5181 308.5988 15.06402228 85473","RCS_SIZE":"LARGE","ARG_OF_PERICENTER":"51.5181","APOAPSIS":"548.593","TIME_SYSTEM":"UTC","REV_AT_EPOCH":"8547","CLASSIFICATION_TYPE":"U","DECAY_DATE":null,"MEAN_MOTION":"15.06402228","TLE_LINE1":"1 48683U 21044AX  22342.53162235  .00002068  00000-0  15772-3 0  9991"},{"TLE_LINE1":"1 48684U 21044AY  22342.81963046  .00002344  00000-0  17625-3 0  9998","REV_AT_EPOCH":"8530","MEAN_MOTION":"15.06398117","DECAY_DATE":null,"CLASSIFICATION_TYPE":"U","APOAPSIS":"548.469","ARG_OF_PERICENTER":"66.6199","TIME_SYSTEM":"UTC","BSTAR":"0.00017625000000","RCS_SIZE":"LARGE","TLE_LINE2":"2 48684  53.0569  15.0442 0001804  66.6199 293.4979 15.06398117 85306","SITE":"AFETR","OBJECT_ID":"2021-044AY","MEAN_MOTION_DDOT":"0.0000000000000","ELEMENT_SET_NO":"999","ECCENTRICITY":"0.00018040","OBJECT_NAME":"STARLINK-2741","FILE":"3684925","GP_ID":"219808664","REF_FRAME":"TEME","MEAN_MOTION_DOT":"0.00002344","EPOCH":"2022-12-08T19:40:16.071744","PERIAPSIS":"545.970","MEAN_ANOMALY":"293.4979","LAUNCH_DATE":"2021-05-26","EPHEMERIS_TYPE":"0","NORAD_CAT_ID":"48684","OBJECT_TYPE":"PAYLOAD","CENTER_NAME":"EARTH","COUNTRY_CODE":"US","SEMIMAJOR_AXIS":"6925.354","INCLINATION":"53.0569","MEAN_ELEMENT_THEORY":"SGP4","PERIOD":"95.592","RA_OF_ASC_NODE":"15.0442"},{"REV_AT_EPOCH":"8551","DECAY_DATE":null,"MEAN_MOTION":"15.06401696","CLASSIFICATION_TYPE":"U","TLE_LINE1":"1 48685U 21044AZ  22342.76752557  .00002461  00000-0  18406-3 0  9994","BSTAR":"0.00018406000000","TLE_LINE2":"2 48685  53.0551 359.9725 0001455  61.4087 298.7048 15.06401696 85518","RCS_SIZE":"LARGE","ARG_OF_PERICENTER":"61.4087","APOAPSIS":"548.216","TIME_SYSTEM":"UTC","OBJECT_ID":"2021-044AZ","MEAN_MOTION_DDOT":"0.0000000000000","SITE":"AFETR","FILE":"3684925","ECCENTRICITY":"0.00014550","ELEMENT_SET_NO":"999","OBJECT_NAME":"STARLINK-2751","GP_ID":"219807412","MEAN_MOTION_DOT":"0.00002461","REF_FRAME":"TEME","EPHEMERIS_TYPE":"0","LAUNCH_DATE":"2021-05-26","OBJECT_TYPE":"PAYLOAD","NORAD_CAT_ID":"48685","PERIAPSIS":"546.201","MEAN_ANOMALY":"298.7048","EPOCH":"2022-12-08T18:25:14.209248","INCLINATION":"53.0551","SEMIMAJOR_AXIS":"6925.343","COUNTRY_CODE":"US","RA_OF_ASC_NODE":"359.9725","PERIOD":"95.592","MEAN_ELEMENT_THEORY":"SGP4","CENTER_NAME":"EARTH"},{"BSTAR":"0.00011303000000","TLE_LINE2":"2 48686  53.0576   5.2375 0001818  50.4798 309.6351 15.06399615 85435","RCS_SIZE":"LARGE","ARG_OF_PERICENTER":"50.4798","APOAPSIS":"548.474","TIME_SYSTEM":"UTC","REV_AT_EPOCH":"8543","DECAY_DATE":null,"MEAN_MOTION":"15.06399615","CLASSIFICATION_TYPE":"U","TLE_LINE1":"1 48686U 21044BA  22342.76156941  .00001402  00000-0  11303-3 0  9993","FILE":"3684925","ECCENTRICITY":"0.00018180","ELEMENT_SET_NO":"999","OBJECT_NAME":"STARLINK-2629","OBJECT_ID":"2021-044BA","MEAN_MOTION_DDOT":"0.0000000000000","SITE":"AFETR","MEAN_MOTION_DOT":"0.00001402","REF_FRAME":"TEME","GP_ID":"219807162","INCLINATION":"53.0576","SEMIMAJOR_AXIS":"6925.350","COUNTRY_CODE":"US","RA_OF_ASC_NODE":"5.2375","PERIOD":"95.592","MEAN_ELEMENT_THEORY":"SGP4","CENTER_NAME":"EARTH","EPHEMERIS_TYPE":"0","LAUNCH_DATE":"2021-05-26","NORAD_CAT_ID":"48686","OBJECT_TYPE":"PAYLOAD","PERIAPSIS":"545.956","MEAN_ANOMALY":"309.6351","EPOCH":"2022-12-08T18:16:39.597024"}];
